#aV2006  2 11  0  0   .00000000      96 DD+AD WGS84 FIT  NGA
## 1361 518400.00000000   900.00000000 53777  .0000000000000
+   29     1  2  3  4  5  6  7  8  9 10 11 13 14 15 16 17 18
+         19 20 21 22 23 24 25 26 27 28 29 30  0  0  0  0  0
+          0  0  0  0  0  0  0  0  0  0  0  0  0  0  0  0  0
+          0  0  0  0  0  0  0  0  0  0  0  0  0  0  0  0  0
+          0  0  0  0  0  0  0  0  0  0  0  0  0  0  0  0  0
++         0  0  0  0  0  0  0  0  0  0  0  0  0  0  0  0  0
++         0  0  0  0  0  0  0  0  0  0  0  0  0  0  0  0  0
++         0  0  0  0  0  0  0  0  0  0  0  0  0  0  0  0  0
++         0  0  0  0  0  0  0  0  0  0  0  0  0  0  0  0  0
++         0  0  0  0  0  0  0  0  0  0  0  0  0  0  0  0  0
%c cc cc ccc ccc cccc cccc cccc cccc ccccc ccccc ccccc ccccc
%c cc cc ccc ccc cccc cccc cccc cccc ccccc ccccc ccccc ccccc
%f  0.0000000  0.000000000  0.00000000000  0.000000000000000
%f  0.0000000  0.000000000  0.00000000000  0.000000000000000
%i    0    0    0    0      0      0      0      0         0
%i    0    0    0    0      0      0      0      0         0
/*      NGA, ST. LOUIS,MO.                                  
/*   EPHEMERIS COMPUTED FROM  3 DAYS OF DATA                
/* CCCCCCCCCCCCCCCCCCCCCCCCCCCCCCCCCCCCCCCCCCCCCCCCCCCCCCCCC
/* CCCCCCCCCCCCCCCCCCCCCCCCCCCCCCCCCCCCCCCCCCCCCCCCCCCCCCCCC
*  2006  2 11 23 30   .00000000                                                 
P  1 -15313.197468  -2575.817240 -21355.125098     36.211817                    
V  1  -6649.543248 -26697.086696   7874.466213       .020588                    
P  2  21168.449063  -8321.581537 -13843.161745    -18.873313                    
V  2  -9902.187738  14293.489309 -24386.432343       .014721                    
P  3 -15404.365124   4197.395281  21078.839753     74.067624                    
V  3 -10186.352278 -25292.562722  -2089.803114       .029464                    
P  4  17857.259891   1765.579704 -19727.178016    146.503456                    
V  4 -16480.125108  18698.151888 -12916.463592       .114326                    
P  5   7240.898188 -14611.133420 -21135.846322   -582.432806                    
V  5  26125.796637   4526.015953   6041.574180       .917537                    
P  6  -6146.299104 -25549.537731  -3350.412956    315.905315                    
V  6   4983.728904   3058.327606 -30804.897743       .354719                    
P  7  13462.826541  -8288.463406 -21024.059406    493.423420                    
V  7  10118.415770  25646.238965  -3724.381243       .083327                    
P  8  11392.851601   9677.688392  21816.972909    -56.316005                    
V  8 -19910.491827  19704.356954   1257.602195      -.013306                    
P  9  14103.670158 -21850.146193  -5077.038122      7.440106                    
V  9   6062.546224  -2479.289896  31034.992320       .015066                    
P 10  23182.113940  -3126.770202  12786.926510     78.539643                    
V 10  15328.166715   5608.779659 -25936.763583       .006522                    
P 11 -11941.760733  23190.968739  -4326.412215    306.206573                    
V 11  -7148.765497   1750.616164  29783.642790       .027910                    
P 13   6161.422206  25816.481865  -1729.811389     40.777446                    
V 13  -2308.274582  -1521.852411 -32265.503678       .024022                    
P 14 -14850.429998 -16776.062687 -14228.223578    -19.588782                    
V 14  -3680.524427 -17816.854610  24681.685205       .006486                    
P 15 -10669.969693 -10830.747004  21611.033933    564.440839                    
V 15  20517.691432 -18840.438582    313.708447       .059270                    
P 16 -25781.521562  -1446.847492   6500.008047     26.041435                    
V 16  -7318.528870  -4357.030257 -30294.157432       .018378                    
P 17  14919.118211  17940.236862 -12787.984069     48.766399                    
V 17   2639.158220  16112.956660  25647.394955       .080066                    
P 18 -11030.051744 -16219.242633  18136.369694   -220.218627                    
V 18  22292.712588   4676.811391  17546.502495      -.021275                    
P 19  -8911.289629  17297.622209  18162.598163    -21.755208                    
V 19  -6993.680236 -21846.240410  17501.971390       .009376                    
P 20  -7220.823104  13885.608309 -21539.037980    -32.959368                    
V 20 -26436.935357  -6252.026790   4881.669667       .009169                    
P 21  -2596.400311 -17512.698650  19687.572552      4.649561                    
V 21  18928.146733 -16590.851608 -12793.598478       .034117                    
P 22 -22020.523250 -12379.485573   8357.860613     67.907378                    
V 22  10741.612554    258.151231  29239.574192       .031076                    
P 23  -2082.987066  23127.133975 -12840.249590    150.822479                    
V 23  -6915.599874 -14825.552562 -25903.715424      -.014309                    
P 24   6439.520132  14332.852420 -21142.164465     84.755128                    
V 24 -20181.864707  18609.979680   6636.387324       .030392                    
P 25 -18704.117761   2986.219443 -18261.338963   -119.796073                    
V 25  13337.896284 -20028.668437 -16466.453681       .384610                    
P 26  10491.670706 -12422.891990  20488.634125    -35.611038                    
V 26   8335.926661  25644.134445  11653.582794      -.085415                    
P 27   3632.516222  17705.364077  19939.386568     35.433678                    
V 27 -16350.104550  17839.277364 -13619.497282       .015448                    
P 28  20258.369740  13304.296358  11529.177717     33.470982                    
V 28 -14195.256347  -1363.422146  26809.548547      -.006764                    
P 29  12575.334883  -8530.424729  22004.379774    530.428852                    
V 29   8732.882651  25875.308104   5343.765393       .122517                    
P 30  -3558.793548 -16183.938398 -21051.397992     24.265145                    
V 30  25807.590993   4222.285105  -7595.483096       .025629                    
EOF
